[{"OBJECT_NAME":"STARLINK-32360","OBJECT_ID":"2024-158T","EPOCH":"2026-03-09T09:04:02.381376","MEAN_MOTION":15.30200889,"ECCENTRICITY":0.00010404,"INCLINATION":53.1605,"RA_OF_ASC_NODE":51.6751,"ARG_OF_PERICENTER":81.4572,"MEAN_ANOMALY":278.6547,"EPHEMERIS_TYPE":0,"CLASSIFICATION_TYPE":"U","NORAD_CAT_ID":61007,"ELEMENT_SET_NO":999,"REV_AT_EPOCH":8574,"BSTAR":-0.00011029885,"MEAN_MOTION_DOT":-3.624e-5,"MEAN_MOTION_DDOT":0},{"OBJECT_NAME":"ALTAIR (RS65S)","OBJECT_ID":"2024-199AW","EPOCH":"2026-03-09T21:31:54.569568","MEAN_MOTION":15.34998047,"ECCENTRICITY":0.00120363,"INCLINATION":97.3179,"RA_OF_ASC_NODE":298.9542,"ARG_OF_PERICENTER":307.5319,"MEAN_ANOMALY":52.483,"EPHEMERIS_TYPE":0,"CLASSIFICATION_TYPE":"U","NORAD_CAT_ID":61779,"ELEMENT_SET_NO":999,"REV_AT_EPOCH":12187,"BSTAR":0.00027541775,"MEAN_MOTION_DOT":9.293e-5,"MEAN_MOTION_DDOT":0}]
